{"type": "FeatureCollection", "features": [{"type": "Feature", "properties": {"norad_id": 28054, "name": "DMSP 5D-3 F16 (USA 172)", "group": "weather", "lat": -41.72922398171249, "lon": 14.548099804622128, "alt_km": 846.151522999734, "timestamp": "2025-12-14T22:38:40.402833+00:00", "meta": {"OBJECT_NAME": "DMSP 5D-3 F16 (USA 172)", "OBJECT_ID": "2003-048A", "EPOCH": "2025-12-14T08:25:48.999648", "MEAN_MOTION": 14.1442487, "ECCENTRICITY": 0.00064456, "INCLINATION": 99.0046, "RA_OF_ASC_NODE": 5.821, "ARG_OF_PERICENTER": 315.8273, "MEAN_ANOMALY": 227.8106, "EPHEMERIS_TYPE": 0, "CLASSIFICATION_TYPE": "U", "NORAD_CAT_ID": 28054, "ELEMENT_SET_NO": 999, "REV_AT_EPOCH": 14335, "BSTAR": 0.00012434352, "MEAN_MOTION_DOT": 1.93e-06, "MEAN_MOTION_DDOT": 0}, "tle": {"line1": "1 28054U 03048A   25348.35126157  .00000193  00000+0  12434-3 0  9995", "line2": "2 28054  99.0046   5.8210 0006445 315.8273 227.8106 14.14424870143350"}}, "geometry": {"type": "Point", "coordinates": [14.548099804622128, -41.72922398171249]}}, {"type": "Feature", "properties": {"norad_id": 28912, "name": "METEOSAT-9 (MSG-2)", "group": "weather", "lat": 7.17368702428356, "lon": 108.87263480243689, "alt_km": 35794.37530311326, "timestamp": "2025-12-14T22:38:40.402879+00:00", "meta": {"OBJECT_NAME": "METEOSAT-9 (MSG-2)", "OBJECT_ID": "2005-049B", "EPOCH": "2025-12-13T20:30:47.672352", "MEAN_MOTION": 1.00277243, "ECCENTRICITY": 0.00035181, "INCLINATION": 8.9422, "RA_OF_ASC_NODE": 55.9671, "ARG_OF_PERICENTER": 190.0125, "MEAN_ANOMALY": 190.1961, "EPHEMERIS_TYPE": 0, "CLASSIFICATION_TYPE": "U", "NORAD_CAT_ID": 28912, "ELEMENT_SET_NO": 999, "REV_AT_EPOCH": 514, "BSTAR": 0, "MEAN_MOTION_DOT": 1.35e-06, "MEAN_MOTION_DDOT": 0}, "tle": {"line1": "1 28912U 05049B   25347.85471843  .00000135  00000+0  00000+0 0  9998", "line2": "2 28912   8.9422  55.9671 0003518 190.0125 190.1961  1.00277243  5140"}}, "geometry": {"type": "Point", "coordinates": [108.87263480243689, 7.17368702428356]}}, {"type": "Feature", "properties": {"norad_id": 29522, "name": "DMSP 5D-3 F17 (USA 191)", "group": "weather", "lat": -78.21216364650314, "lon": 126.80335301503354, "alt_km": 844.9610677731998, "timestamp": "2025-12-14T22:38:40.402897+00:00", "meta": {"OBJECT_NAME": "DMSP 5D-3 F17 (USA 191)", "OBJECT_ID": "2006-050A", "EPOCH": "2025-12-14T06:08:07.176768", "MEAN_MOTION": 14.14920397, "ECCENTRICITY": 0.00094698, "INCLINATION": 98.7393, "RA_OF_ASC_NODE": 353.6132, "ARG_OF_PERICENTER": 220.175, "MEAN_ANOMALY": 139.8724, "EPHEMERIS_TYPE": 0, "CLASSIFICATION_TYPE": "U", "NORAD_CAT_ID": 29522, "ELEMENT_SET_NO": 999, "REV_AT_EPOCH": 98626, "BSTAR": 0.0001473418, "MEAN_MOTION_DOT": 2.41e-06, "MEAN_MOTION_DDOT": 0}, "tle": {"line1": "1 29522U 06050A   25348.25563862  .00000241  00000+0  14734-3 0  9998", "line2": "2 29522  98.7393 353.6132 0009469 220.1750 139.8724 14.14920397986264"}}, "geometry": {"type": "Point", "coordinates": [126.80335301503354, -78.21216364650314]}}, {"type": "Feature", "properties": {"norad_id": 32958, "name": "FENGYUN 3A", "group": "weather", "lat": 12.209461657910035, "lon": -73.46820814180681, "alt_km": 826.1366101456588, "timestamp": "2025-12-14T22:38:40.402911+00:00", "meta": {"OBJECT_NAME": "FENGYUN 3A", "OBJECT_ID": "2008-026A", "EPOCH": "2025-12-14T07:21:41.535072", "MEAN_MOTION": 14.1951531, "ECCENTRICITY": 0.00078504, "INCLINATION": 98.6699, "RA_OF_ASC_NODE": 287.8005, "ARG_OF_PERICENTER": 305.518, "MEAN_ANOMALY": 54.5263, "EPHEMERIS_TYPE": 0, "CLASSIFICATION_TYPE": "U", "NORAD_CAT_ID": 32958, "ELEMENT_SET_NO": 999, "REV_AT_EPOCH": 90917, "BSTAR": 0.00010244751, "MEAN_MOTION_DOT": 1.73e-06, "MEAN_MOTION_DDOT": 0}, "tle": {"line1": "1 32958U 08026A   25348.30673073  .00000173  00000+0  10245-3 0  9999", "line2": "2 32958  98.6699 287.8005 0007850 305.5180  54.5263 14.19515310909179"}}, "geometry": {"type": "Point", "coordinates": [-73.46820814180681, 12.209461657910035]}}, {"type": "Feature", "properties": {"norad_id": 35491, "name": "GOES 14", "group": "weather", "lat": -0.8927731298923489, "lon": -47.63208963663125, "alt_km": 35834.07188948335, "timestamp": "2025-12-14T22:38:40.402926+00:00", "meta": {"OBJECT_NAME": "GOES 14", "OBJECT_ID": "2009-033A", "EPOCH": "2025-12-14T06:02:39.838272", "MEAN_MOTION": 1.00096325, "ECCENTRICITY": 6.778e-05, "INCLINATION": 1.2067, "RA_OF_ASC_NODE": 85.3825, "ARG_OF_PERICENTER": 165.5463, "MEAN_ANOMALY": 172.1994, "EPHEMERIS_TYPE": 0, "CLASSIFICATION_TYPE": "U", "NORAD_CAT_ID": 35491, "ELEMENT_SET_NO": 999, "REV_AT_EPOCH": 473, "BSTAR": 0, "MEAN_MOTION_DOT": -9e-08, "MEAN_MOTION_DDOT": 0}, "tle": {"line1": "1 35491U 09033A   25348.25184998 -.00000009  00000+0  00000+0 0  9993", "line2": "2 35491   1.2067  85.3825 0000677 165.5463 172.1994  1.00096325  4734"}}, "geometry": {"type": "Point", "coordinates": [-47.63208963663125, -0.8927731298923489]}}, {"type": "Feature", "properties": {"norad_id": 35951, "name": "DMSP 5D-3 F18 (USA 210)", "group": "weather", "lat": 50.7359339877645, "lon": 156.36361244716872, "alt_km": 835.6121893422978, "timestamp": "2025-12-14T22:38:40.402939+00:00", "meta": {"OBJECT_NAME": "DMSP 5D-3 F18 (USA 210)", "OBJECT_ID": "2009-057A", "EPOCH": "2025-12-14T06:45:54.647136", "MEAN_MOTION": 14.14770181, "ECCENTRICITY": 0.0012038, "INCLINATION": 98.8836, "RA_OF_ASC_NODE": 324.6749, "ARG_OF_PERICENTER": 58.6918, "MEAN_ANOMALY": 301.5432, "EPHEMERIS_TYPE": 0, "CLASSIFICATION_TYPE": "U", "NORAD_CAT_ID": 35951, "ELEMENT_SET_NO": 999, "REV_AT_EPOCH": 83344, "BSTAR": 0.00020323124, "MEAN_MOTION_DOT": 3.47e-06, "MEAN_MOTION_DDOT": 0}, "tle": {"line1": "1 35951U 09057A   25348.28188249  .00000347  00000+0  20323-3 0  9994", "line2": "2 35951  98.8836 324.6749 0012038  58.6918 301.5432 14.14770181833447"}}, "geometry": {"type": "Point", "coordinates": [156.36361244716872, 50.7359339877645]}}, {"type": "Feature", "properties": {"norad_id": 36411, "name": "EWS-G2 (GOES 15)", "group": "weather", "lat": 0.52485788099066, "lon": 124.85909981906147, "alt_km": 35803.79447215509, "timestamp": "2025-12-14T22:38:40.402952+00:00", "meta": {"OBJECT_NAME": "EWS-G2 (GOES 15)", "OBJECT_ID": "2010-008A", "EPOCH": "2025-12-14T04:38:38.457888", "MEAN_MOTION": 1.00270204, "ECCENTRICITY": 0.00056464, "INCLINATION": 0.8177, "RA_OF_ASC_NODE": 86.0671, "ARG_OF_PERICENTER": 175.4906, "MEAN_ANOMALY": 312.6146, "EPHEMERIS_TYPE": 0, "CLASSIFICATION_TYPE": "U", "NORAD_CAT_ID": 36411, "ELEMENT_SET_NO": 999, "REV_AT_EPOCH": 5778, "BSTAR": 0, "MEAN_MOTION_DOT": 5.5e-07, "MEAN_MOTION_DDOT": 0}, "tle": {"line1": "1 36411U 10008A   25348.19350067  .00000055  00000+0  00000+0 0  9995", "line2": "2 36411   0.8177  86.0671 0005646 175.4906 312.6146  1.00270204 57787"}}, "geometry": {"type": "Point", "coordinates": [124.85909981906147, 0.52485788099066]}}, {"type": "Feature", "properties": {"norad_id": 36744, "name": "COMS 1", "group": "weather", "lat": 3.968749470018086, "lon": -168.2595305491345, "alt_km": 35784.58147338631, "timestamp": "2025-12-14T22:38:40.402966+00:00", "meta": {"OBJECT_NAME": "COMS 1", "OBJECT_ID": "2010-032A", "EPOCH": "2025-12-14T05:28:05.649888", "MEAN_MOTION": 1.00272291, "ECCENTRICITY": 8.454e-05, "INCLINATION": 4.3447, "RA_OF_ASC_NODE": 77.982, "ARG_OF_PERICENTER": 188.3791, "MEAN_ANOMALY": 26.9801, "EPHEMERIS_TYPE": 0, "CLASSIFICATION_TYPE": "U", "NORAD_CAT_ID": 36744, "ELEMENT_SET_NO": 999, "REV_AT_EPOCH": 4923, "BSTAR": 0, "MEAN_MOTION_DOT": -3.28e-06, "MEAN_MOTION_DDOT": 0}, "tle": {"line1": "1 36744U 10032A   25348.22784317 -.00000328  00000+0  00000+0 0  9998", "line2": "2 36744   4.3447  77.9820 0000845 188.3791  26.9801  1.00272291 49233"}}, "geometry": {"type": "Point", "coordinates": [-168.2595305491345, 3.968749470018086]}}, {"type": "Feature", "properties": {"norad_id": 37214, "name": "FENGYUN 3B", "group": "weather", "lat": 80.45573995345416, "lon": -80.73206625269216, "alt_km": 838.7297969847168, "timestamp": "2025-12-14T22:38:40.402978+00:00", "meta": {"OBJECT_NAME": "FENGYUN 3B", "OBJECT_ID": "2010-059A", "EPOCH": "2025-12-14T08:40:36.291360", "MEAN_MOTION": 14.14790124, "ECCENTRICITY": 0.00219987, "INCLINATION": 98.9912, "RA_OF_ASC_NODE": 28.3501, "ARG_OF_PERICENTER": 353.3021, "MEAN_ANOMALY": 17.0645, "EPHEMERIS_TYPE": 0, "CLASSIFICATION_TYPE": "U", "NORAD_CAT_ID": 37214, "ELEMENT_SET_NO": 999, "REV_AT_EPOCH": 78129, "BSTAR": 2.9594923e-05, "MEAN_MOTION_DOT": 1.2e-07, "MEAN_MOTION_DDOT": 0}, "tle": {"line1": "1 37214U 10059A   25348.36153115  .00000012  00000+0  29595-4 0  9995", "line2": "2 37214  98.9912  28.3501 0021998 353.3021  17.0645 14.14790124781295"}}, "geometry": {"type": "Point", "coordinates": [-80.73206625269216, 80.45573995345416]}}, {"type": "Feature", "properties": {"norad_id": 37849, "name": "SUOMI NPP", "group": "weather", "lat": -28.61948730059077, "lon": -68.89876323321195, "alt_km": 834.1360222236463, "timestamp": "2025-12-14T22:38:40.402990+00:00", "meta": {"OBJECT_NAME": "SUOMI NPP", "OBJECT_ID": "2011-061A", "EPOCH": "2025-12-14T07:33:21.051936", "MEAN_MOTION": 14.1951479, "ECCENTRICITY": 0.00022986, "INCLINATION": 98.7774, "RA_OF_ASC_NODE": 285.6422, "ARG_OF_PERICENTER": 117.3378, "MEAN_ANOMALY": 242.8032, "EPHEMERIS_TYPE": 0, "CLASSIFICATION_TYPE": "U", "NORAD_CAT_ID": 37849, "ELEMENT_SET_NO": 999, "REV_AT_EPOCH": 73221, "BSTAR": 8.6493077e-05, "MEAN_MOTION_DOT": 1.38e-06, "MEAN_MOTION_DDOT": 0}, "tle": {"line1": "1 37849U 11061A   25348.31482699  .00000138  00000+0  86493-4 0  9999", "line2": "2 37849  98.7774 285.6422 0002298 117.3378 242.8032 14.19514790732212"}}, "geometry": {"type": "Point", "coordinates": [-68.89876323321195, -28.61948730059077]}}]}